HST                     
1 20580U 90037B   26160.25429042  .00004810  00000+0  15014-3 0  9993
2 20580  28.4711 134.7882 0001992  63.4353 296.6447 15.30659901787355
POLAR                   
1 23802U 96013A   26159.56451731  .00000117  00000+0  00000+0 0  9996
2 23802  79.8436 227.1533 6462018 209.3782  89.3193  1.29846146144749
SWAS                    
1 25560U 98071A   26159.53422963  .00004378  00000+0  27822-3 0  9995
2 25560  69.8962 249.8323 0008944 267.6953  92.3187 15.09572739495965
CXO                     
1 25867U 99040B   26161.44248451  .00000667  00000+0  00000+0 0  9995
2 25867  56.0540 116.8503 7852548 310.2578   0.2529  0.37805334 17299
XMM-NEWTON              
1 25989U 99066A   26161.36780906  .00000089  00000+0  00000+0 0  9993
2 25989  64.5271 283.0748 4677764  65.0342   0.0416  0.50122831 22976
TERRA                   
1 25994U 99068A   26160.29179171  .00000332  00000+0  76469-4 0  9996
2 25994  97.9459 210.1508 0001011 225.7960 262.5868 14.61096772408456
CLUSTER II-FM7 (SAMBA)  
1 26410U 00041A   26161.44626665  .00004459  00000+0  00000+0 0  9993
2 26410 149.9132  49.6129 9048191 266.6863 359.9829  0.44840364 20284
CLUSTER II-FM8 (TANGO)  
1 26464U 00045B   26157.18212104  .00004544  00000+0  00000+0 0  9996
2 26464 150.1407  49.6985 9046201 266.6195   3.2041  0.44406384 20263
ODIN                    
1 26702U 01007A   26160.08640460  .00135654  00000+0  97686-3 0  9990
2 26702  97.3859 200.5220 0006524 153.1212 207.0391 15.73146623388125
TIMED                   
1 26998U 01055B   26160.31407065  .00001216  00000+0  11397-3 0  9999
2 26998  74.0679 250.8704 0000668 350.9805   9.1368 14.95277358329647
CORIOLIS                
1 27640U 03001A   26160.02322940  .00000085  00000+0  60666-4 0  9990
2 27640  98.7126 167.0327 0013009 233.7419 126.2556 14.19942563213065
SORCE                   
1 27651U 03004A   26160.10335366  .00002505  00000+0  19008-3 0  9992
2 27651  39.9917 307.7981 0017671 349.7405  10.3026 15.03669281270686
MOST                    
1 27843U 03031D   26160.25644969  .00000064  00000+0  49230-4 0  9992
2 27843  98.7045 168.0931 0008687 276.3984  83.6204 14.21320845189589
SCISAT 1                
1 27858U 03036A   26160.32464873  .00000483  00000+0  66400-4 0  9998
2 27858  73.9286 186.9648 0008683 256.0366 103.9845 14.81439824230281
SWIFT                   
1 28485U 04047A   26159.59812323  .00052750  00000+0  45448-3 0  9994
2 28485  20.5526 251.1191 0002508 160.7611 199.2930 15.67465385185519
HINODE (SOLAR-B)        
1 29479U 06041A   26160.28205438  .00000671  00000+0  12371-3 0  9999
2 29479  98.0549 176.5512 0016370 316.9030  43.0893 14.68612047 53716
SHIJIAN-6 02A (SJ-6 02A)
1 29505U 06046A   26160.30761942  .00004370  00000+0  22561-3 0  9996
2 29505  97.6368 201.3150 0003839 143.6630 216.4864 15.16847851 71072
SHIJIAN-6 02B (SJ-6 02B)
1 29506U 06046B   26160.28199215  .00001316  00000+0  10663-3 0  9999
2 29506  97.7164 189.3894 0014810  83.1773 277.1136 15.01357057 69559
FGRST (GLAST)           
1 33053U 08029A   26159.97823236  .00003008  00000+0  10744-3 0  9995
2 33053  25.5825 261.4807 0007740 227.0054 132.9836 15.23907653994587
SDO                     
1 36395U 10005A   26159.32339039 -.00000060  00000+0  00000+0 0  9992
2 36395  34.6325  86.4781 0001516  53.0773 131.5755  1.00270840 59972
CRYOSAT 2               
1 36508U 10013A   26160.22459947  .00000114  00000+0  27556-4 0  9998
2 36508  92.0348 275.3664 0002215  86.4257 273.7203 14.51896711856922
X-SAT                   
1 37389U 11015C   26160.22211303 -.00000044  00000+0 -13803-5 0  9996
2 37389  98.3511 137.6254 0014465  11.6029 348.5482 14.25203357786542
GCOM-W1 (SHIZUKU)       
1 38337U 12025A   26160.28508847  .00000422  00000+0  10378-3 0  9990
2 38337  98.2020 100.9605 0001858  80.7755  42.8344 14.57117224747885
NUSTAR                  
1 38358U 12031A   26160.33336806  .00021961  00000+0  13006-2 0  9991
2 38358   6.0267  93.0331 0007867 341.2266 172.0814 15.08721194  1306
NEOSSAT                 
1 39089U 13009D   26160.26524608  .00000128  00000+0  58983-4 0  9997
2 39089  98.4176 340.4865 0009774 270.3538  89.6528 14.35823576695609
BRITE-AUSTRIA           
1 39091U 13009F   26160.05885665  .00000151  00000+0  66011-4 0  9997
2 39091  98.3993 339.6960 0008962 263.9907  96.0258 14.36538801695887
IRIS                    
1 39197U 13033A   26160.08392566  .00000918  00000+0  11130-3 0  9999
2 39197  97.9335 359.3864 0024175 348.9993  11.0690 14.85868723699170
HISAKI (SPRINT-A)       
1 39253U 13049A   26160.24808038  .00000127  00000+0  83976-4 0  9993
2 39253  29.7203 260.3761 0136892 312.5150  46.3929 13.55543842630347
CASSIOPE                
1 39265U 13055A   26160.22192264  .00040862 -59382-6  45034-3 0  9995
2 39265  80.9147  76.3874 0295367  89.1457 274.3602 15.24461448666457
STSAT-3                 
1 39422U 13066G   26160.25551706  .00003364  00000+0  25618-3 0  9992
2 39422  97.6216 130.2719 0011004  65.7052 294.5321 15.02710919683016
